[{"OBJECT_NAME":"TEN-KOH","OBJECT_ID":"2018-084G","EPOCH":"2026-03-09T23:23:52.653408","MEAN_MOTION":15.02465351,"ECCENTRICITY":0.0011972,"INCLINATION":98.0798,"RA_OF_ASC_NODE":257.1735,"ARG_OF_PERICENTER":91.8355,"MEAN_ANOMALY":268.424,"EPHEMERIS_TYPE":0,"CLASSIFICATION_TYPE":"U","NORAD_CAT_ID":43677,"ELEMENT_SET_NO":999,"REV_AT_EPOCH":40126,"BSTAR":0.00025918134,"MEAN_MOTION_DOT":3.377e-5,"MEAN_MOTION_DDOT":0},{"OBJECT_NAME":"STARLINK-34210","OBJECT_ID":"2025-211B","EPOCH":"2026-03-09T17:16:04.010304","MEAN_MOTION":15.05646869,"ECCENTRICITY":0.00013476,"INCLINATION":97.6026,"RA_OF_ASC_NODE":114.0515,"ARG_OF_PERICENTER":102.4325,"MEAN_ANOMALY":257.7053,"EPHEMERIS_TYPE":0,"CLASSIFICATION_TYPE":"U","NORAD_CAT_ID":65653,"ELEMENT_SET_NO":999,"REV_AT_EPOCH":2704,"BSTAR":0.00014724666,"MEAN_MOTION_DOT":2.064e-5,"MEAN_MOTION_DDOT":0}]
